{
  "type": "FeatureCollection",
  "features": [
    {
      "type": "Feature",
      "properties": {
        "norad_id": 34350,
        "name": "IRIDIUM 33 DEB",
        "group": "iridium-33-debris",
        "lat": 40.05884291451818,
        "lon": 7.797287923133952,
        "alt_km": 742.7583752098571,
        "timestamp": "2025-12-08T08:59:01.151464+00:00",
        "meta_object_name": "IRIDIUM 33 DEB",
        "meta_object_id": "1997-051ES",
        "meta_epoch": "2025-12-07T07:57:58.605120",
        "meta_mean_motion": 14.45368778,
        "meta_eccentricity": 0.00222637,
        "meta_inclination": 86.328,
        "meta_ra_of_asc_node": 5.154,
        "meta_arg_of_pericenter": 152.1514,
        "meta_mean_anomaly": 227.8879,
        "meta_ephemeris_type": 0,
        "meta_classification_type": "U",
        "meta_norad_cat_id": 34350,
        "meta_element_set_no": 999,
        "meta_rev_at_epoch": 88215,
        "meta_bstar": 0.00056959331,
        "meta_mean_motion_dot": 2.027e-05,
        "meta_mean_motion_ddot": 0,
        "tle_line1": "1 34350U 97051ES  25341.33192830  .00002027  00000+0  56959-3 0  9998",
        "tle_line2": "2 34350  86.3280   5.1540 0022263 152.1514 227.8879 14.45368778882153"
      },
      "geometry": {
        "type": "Point",
        "coordinates": [
          7.797287923133952,
          40.05884291451818
        ]
      }
    },
    {
      "type": "Feature",
      "properties": {
        "norad_id": 34366,
        "name": "IRIDIUM 33 DEB",
        "group": "iridium-33-debris",
        "lat": -52.90917643037711,
        "lon": -123.97103900177362,
        "alt_km": 716.7774863765362,
        "timestamp": "2025-12-08T08:59:01.151474+00:00",
        "meta_object_name": "IRIDIUM 33 DEB",
        "meta_object_id": "1997-051FJ",
        "meta_epoch": "2025-12-07T22:49:04.445760",
        "meta_mean_motion": 14.53992802,
        "meta_eccentricity": 0.00220861,
        "meta_inclination": 86.3696,
        "meta_ra_of_asc_node": 51.396,
        "meta_arg_of_pericenter": 155.0204,
        "meta_mean_anomaly": 21.9973,
        "meta_ephemeris_type": 0,
        "meta_classification_type": "U",
        "meta_norad_cat_id": 34366,
        "meta_element_set_no": 999,
        "meta_rev_at_epoch": 88112,
        "meta_bstar": 0.0015640864,
        "meta_mean_motion_dot": 6.633e-05,
        "meta_mean_motion_ddot": 0,
        "tle_line1": "1 34366U 97051FJ  25341.95074590  .00006633  00000+0  15641-2 0  9994",
        "tle_line2": "2 34366  86.3696  51.3960 0022086 155.0204  21.9973 14.53992802881125"
      },
      "geometry": {
        "type": "Point",
        "coordinates": [
          -123.97103900177362,
          -52.90917643037711
        ]
      }
    },
    {
      "type": "Feature",
      "properties": {
        "norad_id": 34375,
        "name": "IRIDIUM 33 DEB",
        "group": "iridium-33-debris",
        "lat": -7.268894176837684,
        "lon": -175.99930250801046,
        "alt_km": 898.590470459837,
        "timestamp": "2025-12-08T08:59:01.151485+00:00",
        "meta_object_name": "IRIDIUM 33 DEB",
        "meta_object_id": "1997-051FT",
        "meta_epoch": "2025-12-07T19:32:32.493408",
        "meta_mean_motion": 14.17979319,
        "meta_eccentricity": 0.01029361,
        "meta_inclination": 86.4328,
        "meta_ra_of_asc_node": 184.6823,
        "meta_arg_of_pericenter": 142.2394,
        "meta_mean_anomaly": 234.0896,
        "meta_ephemeris_type": 0,
        "meta_classification_type": "U",
        "meta_norad_cat_id": 34375,
        "meta_element_set_no": 999,
        "meta_rev_at_epoch": 86642,
        "meta_bstar": 0.00068270447,
        "meta_mean_motion_dot": 1.491e-05,
        "meta_mean_motion_ddot": 0,
        "tle_line1": "1 34375U 97051FT  25341.81426497  .00001491  00000+0  68270-3 0  9990",
        "tle_line2": "2 34375  86.4328 184.6823 0102936 142.2394 234.0896 14.17979319866422"
      },
      "geometry": {
        "type": "Point",
        "coordinates": [
          -175.99930250801046,
          -7.268894176837684
        ]
      }
    },
    {
      "type": "Feature",
      "properties": {
        "norad_id": 34376,
        "name": "IRIDIUM 33 DEB",
        "group": "iridium-33-debris",
        "lat": 26.701540505470874,
        "lon": 10.36828811274278,
        "alt_km": 701.2536932589337,
        "timestamp": "2025-12-08T08:59:01.151495+00:00",
        "meta_object_name": "IRIDIUM 33 DEB",
        "meta_object_id": "1997-051FU",
        "meta_epoch": "2025-12-07T19:43:26.419584",
        "meta_mean_motion": 14.62463862,
        "meta_eccentricity": 0.00266038,
        "meta_inclination": 86.2983,
        "meta_ra_of_asc_node": 8.7505,
        "meta_arg_of_pericenter": 183.3452,
        "meta_mean_anomaly": 176.7586,
        "meta_ephemeris_type": 0,
        "meta_classification_type": "U",
        "meta_norad_cat_id": 34376,
        "meta_element_set_no": 999,
        "meta_rev_at_epoch": 87935,
        "meta_bstar": 0.0023918426,
        "meta_mean_motion_dot": 0.00012205,
        "meta_mean_motion_ddot": 0,
        "tle_line1": "1 34376U 97051FU  25341.82183356  .00012205  00000+0  23918-2 0  9990",
        "tle_line2": "2 34376  86.2983   8.7505 0026603 183.3452 176.7586 14.62463862879353"
      },
      "geometry": {
        "type": "Point",
        "coordinates": [
          10.36828811274278,
          26.701540505470874
        ]
      }
    },
    {
      "type": "Feature",
      "properties": {
        "norad_id": 34486,
        "name": "IRIDIUM 33 DEB",
        "group": "iridium-33-debris",
        "lat": 82.77184002850625,
        "lon": 43.86500303091087,
        "alt_km": 566.686172776439,
        "timestamp": "2025-12-08T08:59:01.151505+00:00",
        "meta_object_name": "IRIDIUM 33 DEB",
        "meta_object_id": "1997-051GB",
        "meta_epoch": "2025-12-07T20:32:12.361632",
        "meta_mean_motion": 14.95471709,
        "meta_eccentricity": 0.00131901,
        "meta_inclination": 86.393,
        "meta_ra_of_asc_node": 14.2783,
        "meta_arg_of_pericenter": 128.7579,
        "meta_mean_anomaly": 44.8246,
        "meta_ephemeris_type": 0,
        "meta_classification_type": "U",
        "meta_norad_cat_id": 34486,
        "meta_element_set_no": 999,
        "meta_rev_at_epoch": 88913,
        "meta_bstar": 0.003459749,
        "meta_mean_motion_dot": 0.00038525,
        "meta_mean_motion_ddot": 0,
        "tle_line1": "1 34486U 97051GB  25341.85569863  .00038525  00000+0  34597-2 0  9994",
        "tle_line2": "2 34486  86.3930  14.2783 0013190 128.7579  44.8246 14.95471709889138"
      },
      "geometry": {
        "type": "Point",
        "coordinates": [
          43.86500303091087,
          82.77184002850625
        ]
      }
    },
    {
      "type": "Feature",
      "properties": {
        "norad_id": 34487,
        "name": "IRIDIUM 33 DEB",
        "group": "iridium-33-debris",
        "lat": -22.28577147359495,
        "lon": -164.24143808080103,
        "alt_km": 741.8761226067209,
        "timestamp": "2025-12-08T08:59:01.151516+00:00",
        "meta_object_name": "IRIDIUM 33 DEB",
        "meta_object_id": "1997-051GC",
        "meta_epoch": "2025-12-07T08:51:00.080352",
        "meta_mean_motion": 14.43206052,
        "meta_eccentricity": 0.0032325,
        "meta_inclination": 86.344,
        "meta_ra_of_asc_node": 14.6897,
        "meta_arg_of_pericenter": 145.3216,
        "meta_mean_anomaly": 235.4285,
        "meta_ephemeris_type": 0,
        "meta_classification_type": "U",
        "meta_norad_cat_id": 34487,
        "meta_element_set_no": 999,
        "meta_rev_at_epoch": 88171,
        "meta_bstar": 0.00034860928,
        "meta_mean_motion_dot": 1.199e-05,
        "meta_mean_motion_ddot": 0,
        "tle_line1": "1 34487U 97051GC  25341.36875093  .00001199  00000+0  34861-3 0  9998",
        "tle_line2": "2 34487  86.3440  14.6897 0032325 145.3216 235.4285 14.43206052881716"
      },
      "geometry": {
        "type": "Point",
        "coordinates": [
          -164.24143808080103,
          -22.28577147359495
        ]
      }
    },
    {
      "type": "Feature",
      "properties": {
        "norad_id": 34488,
        "name": "IRIDIUM 33 DEB",
        "group": "iridium-33-debris",
        "lat": -86.32185600455348,
        "lon": -141.11167387804963,
        "alt_km": 497.89027622151207,
        "timestamp": "2025-12-08T08:59:01.151526+00:00",
        "meta_object_name": "IRIDIUM 33 DEB",
        "meta_object_id": "1997-051GD",
        "meta_epoch": "2025-12-07T20:48:04.872384",
        "meta_mean_motion": 15.27700867,
        "meta_eccentricity": 0.00145083,
        "meta_inclination": 86.3249,
        "meta_ra_of_asc_node": 308.2225,
        "meta_arg_of_pericenter": 58.5485,
        "meta_mean_anomaly": 301.7178,
        "meta_ephemeris_type": 0,
        "meta_classification_type": "U",
        "meta_norad_cat_id": 34488,
        "meta_element_set_no": 999,
        "meta_rev_at_epoch": 89165,
        "meta_bstar": 0.0065853927,
        "meta_mean_motion_dot": 0.00182761,
        "meta_mean_motion_ddot": 0,
        "tle_line1": "1 34488U 97051GD  25341.86672306  .00182761  00000+0  65854-2 0  9996",
        "tle_line2": "2 34488  86.3249 308.2225 0014508  58.5485 301.7178 15.27700867891655"
      },
      "geometry": {
        "type": "Point",
        "coordinates": [
          -141.11167387804963,
          -86.32185600455348
        ]
      }
    }
  ]
}